{"type": "FeatureCollection", "features": [{"type": "Feature", "properties": {"norad_id": 28890, "name": "BEIJING 1", "group": "dmc", "lat": 79.46683567003527, "lon": 60.05469052276262, "alt_km": 670.594429932542, "timestamp": "2025-12-09T23:33:23.515989+00:00", "meta": {"OBJECT_NAME": "BEIJING 1", "OBJECT_ID": "2005-043A", "EPOCH": "2025-12-09T14:58:15.970944", "MEAN_MOTION": 14.63362403, "ECCENTRICITY": 0.00151414, "INCLINATION": 98.2657, "RA_OF_ASC_NODE": 111.1234, "ARG_OF_PERICENTER": 150.5806, "MEAN_ANOMALY": 209.6251, "EPHEMERIS_TYPE": 0, "CLASSIFICATION_TYPE": "U", "NORAD_CAT_ID": 28890, "ELEMENT_SET_NO": 999, "REV_AT_EPOCH": 7292, "BSTAR": 0.00018820458, "MEAN_MOTION_DOT": 9.25e-06, "MEAN_MOTION_DDOT": 0}, "tle": {"line1": "1 28890U 05043A   25343.62379596  .00000925  00000+0  18820-3 0  9990", "line2": "2 28890  98.2657 111.1234 0015141 150.5806 209.6251 14.63362403 72923"}}, "geometry": {"type": "Point", "coordinates": [60.05469052276262, 79.46683567003527]}}, {"type": "Feature", "properties": {"norad_id": 33320, "name": "HUANJING 1A (HJ-1A)", "group": "dmc", "lat": -81.97466494486366, "lon": 44.91161133158414, "alt_km": 635.3045561945864, "timestamp": "2025-12-09T23:33:23.516014+00:00", "meta": {"OBJECT_NAME": "HUANJING 1A (HJ-1A)", "OBJECT_ID": "2008-041A", "EPOCH": "2025-12-09T14:14:14.463744", "MEAN_MOTION": 14.83375519, "ECCENTRICITY": 0.00203423, "INCLINATION": 97.654, "RA_OF_ASC_NODE": 332.0228, "ARG_OF_PERICENTER": 44.316, "MEAN_ANOMALY": 315.9678, "EPHEMERIS_TYPE": 0, "CLASSIFICATION_TYPE": "U", "NORAD_CAT_ID": 33320, "ELEMENT_SET_NO": 999, "REV_AT_EPOCH": 93029, "BSTAR": 0.00013610067, "MEAN_MOTION_DOT": 1.069e-05, "MEAN_MOTION_DDOT": 0}, "tle": {"line1": "1 33320U 08041A   25343.59322296  .00001069  00000+0  13610-3 0  9998", "line2": "2 33320  97.6540 332.0228 0020342  44.3160 315.9678 14.83375519930291"}}, "geometry": {"type": "Point", "coordinates": [44.91161133158414, -81.97466494486366]}}, {"type": "Feature", "properties": {"norad_id": 33321, "name": "HUANJING 1B (HJ-1B)", "group": "dmc", "lat": 39.74544603170963, "lon": 162.50761042621025, "alt_km": 602.1607528387412, "timestamp": "2025-12-09T23:33:23.516030+00:00", "meta": {"OBJECT_NAME": "HUANJING 1B (HJ-1B)", "OBJECT_ID": "2008-041B", "EPOCH": "2025-12-09T14:50:03.459840", "MEAN_MOTION": 14.82808961, "ECCENTRICITY": 0.00382641, "INCLINATION": 97.6399, "RA_OF_ASC_NODE": 335.7517, "ARG_OF_PERICENTER": 85.5122, "MEAN_ANOMALY": 275.0462, "EPHEMERIS_TYPE": 0, "CLASSIFICATION_TYPE": "U", "NORAD_CAT_ID": 33321, "ELEMENT_SET_NO": 999, "REV_AT_EPOCH": 93031, "BSTAR": 0.0002606067, "MEAN_MOTION_DOT": 2.084e-05, "MEAN_MOTION_DDOT": 0}, "tle": {"line1": "1 33321U 08041B   25343.61809560  .00002084  00000+0  26061-3 0  9998", "line2": "2 33321  97.6399 335.7517 0038264  85.5122 275.0462 14.82808961930313"}}, "geometry": {"type": "Point", "coordinates": [162.50761042621025, 39.74544603170963]}}, {"type": "Feature", "properties": {"norad_id": 33446, "name": "YAOGAN-4", "group": "dmc", "lat": 51.70745210789769, "lon": -96.04503147071766, "alt_km": 614.3848025749176, "timestamp": "2025-12-09T23:33:23.516042+00:00", "meta": {"OBJECT_NAME": "YAOGAN-4", "OBJECT_ID": "2008-061A", "EPOCH": "2025-12-09T13:36:11.546784", "MEAN_MOTION": 14.82667849, "ECCENTRICITY": 0.00138508, "INCLINATION": 97.918, "RA_OF_ASC_NODE": 273.6972, "ARG_OF_PERICENTER": 334.0999, "MEAN_ANOMALY": 25.9519, "EPHEMERIS_TYPE": 0, "CLASSIFICATION_TYPE": "U", "NORAD_CAT_ID": 33446, "ELEMENT_SET_NO": 999, "REV_AT_EPOCH": 91756, "BSTAR": 0.00035667818, "MEAN_MOTION_DOT": 2.827e-05, "MEAN_MOTION_DDOT": 0}, "tle": {"line1": "1 33446U 08061A   25343.56680031  .00002827  00000+0  35668-3 0  9990", "line2": "2 33446  97.9180 273.6972 0013850 334.0999  25.9519 14.82667849917560"}}, "geometry": {"type": "Point", "coordinates": [-96.04503147071766, 51.70745210789769]}}, {"type": "Feature", "properties": {"norad_id": 35681, "name": "DEIMOS-1", "group": "dmc", "lat": -76.44933897567074, "lon": -69.5123758843874, "alt_km": 654.5670302658727, "timestamp": "2025-12-09T23:33:23.516054+00:00", "meta": {"OBJECT_NAME": "DEIMOS-1", "OBJECT_ID": "2009-041A", "EPOCH": "2025-12-09T14:14:45.179808", "MEAN_MOTION": 14.74944345, "ECCENTRICITY": 0.00027176, "INCLINATION": 97.7147, "RA_OF_ASC_NODE": 144.343, "ARG_OF_PERICENTER": 84.3673, "MEAN_ANOMALY": 275.7847, "EPHEMERIS_TYPE": 0, "CLASSIFICATION_TYPE": "U", "NORAD_CAT_ID": 35681, "ELEMENT_SET_NO": 999, "REV_AT_EPOCH": 87893, "BSTAR": 0.00014331753, "MEAN_MOTION_DOT": 9.15e-06, "MEAN_MOTION_DDOT": 0}, "tle": {"line1": "1 35681U 09041A   25343.59357847  .00000915  00000+0  14332-3 0  9992", "line2": "2 35681  97.7147 144.3430 0002717  84.3673 275.7847 14.74944345878937"}}, "geometry": {"type": "Point", "coordinates": [-69.5123758843874, -76.44933897567074]}}, {"type": "Feature", "properties": {"norad_id": 35683, "name": "UK-DMC 2", "group": "dmc", "lat": -81.66450974886767, "lon": -131.49763565261912, "alt_km": 651.5266399134207, "timestamp": "2025-12-09T23:33:23.516066+00:00", "meta": {"OBJECT_NAME": "UK-DMC 2", "OBJECT_ID": "2009-041C", "EPOCH": "2025-12-09T15:50:22.000704", "MEAN_MOTION": 14.75610169, "ECCENTRICITY": 0.00013802, "INCLINATION": 97.8564, "RA_OF_ASC_NODE": 118.6497, "ARG_OF_PERICENTER": 97.2407, "MEAN_ANOMALY": 262.8959, "EPHEMERIS_TYPE": 0, "CLASSIFICATION_TYPE": "U", "NORAD_CAT_ID": 35683, "ELEMENT_SET_NO": 999, "REV_AT_EPOCH": 87861, "BSTAR": 0.00020668902, "MEAN_MOTION_DOT": 1.361e-05, "MEAN_MOTION_DDOT": 0}, "tle": {"line1": "1 35683U 09041C   25343.65997686  .00001361  00000+0  20669-3 0  9998", "line2": "2 35683  97.8564 118.6497 0001380  97.2407 262.8959 14.75610169878614"}}, "geometry": {"type": "Point", "coordinates": [-131.49763565261912, -81.66450974886767]}}, {"type": "Feature", "properties": {"norad_id": 40715, "name": "DMC3-FM1", "group": "dmc", "lat": -38.51008014396748, "lon": 25.118957472653022, "alt_km": 620.0453673155753, "timestamp": "2025-12-09T23:33:23.516077+00:00", "meta": {"OBJECT_NAME": "DMC3-FM1", "OBJECT_ID": "2015-032A", "EPOCH": "2025-12-09T14:29:26.273184", "MEAN_MOTION": 14.85433572, "ECCENTRICITY": 0.00048343, "INCLINATION": 97.669, "RA_OF_ASC_NODE": 210.9102, "ARG_OF_PERICENTER": 333.5959, "MEAN_ANOMALY": 26.501, "EPHEMERIS_TYPE": 0, "CLASSIFICATION_TYPE": "U", "NORAD_CAT_ID": 40715, "ELEMENT_SET_NO": 999, "REV_AT_EPOCH": 56176, "BSTAR": 0.00019936447, "MEAN_MOTION_DOT": 1.667e-05, "MEAN_MOTION_DDOT": 0}, "tle": {"line1": "1 40715U 15032A   25343.60377631  .00001667  00000+0  19936-3 0  9998", "line2": "2 40715  97.6690 210.9102 0004834 333.5959  26.5010 14.85433572561768"}}, "geometry": {"type": "Point", "coordinates": [25.118957472653022, -38.51008014396748]}}, {"type": "Feature", "properties": {"norad_id": 40716, "name": "DMC3-FM2", "group": "dmc", "lat": 78.41338101062844, "lon": 73.84091325365499, "alt_km": 606.9581104181843, "timestamp": "2025-12-09T23:33:23.516088+00:00", "meta": {"OBJECT_NAME": "DMC3-FM2", "OBJECT_ID": "2015-032B", "EPOCH": "2025-12-09T15:01:50.206656", "MEAN_MOTION": 14.85432944, "ECCENTRICITY": 0.00055756, "INCLINATION": 97.6747, "RA_OF_ASC_NODE": 212.3736, "ARG_OF_PERICENTER": 338.1865, "MEAN_ANOMALY": 21.9113, "EPHEMERIS_TYPE": 0, "CLASSIFICATION_TYPE": "U", "NORAD_CAT_ID": 40716, "ELEMENT_SET_NO": 999, "REV_AT_EPOCH": 56176, "BSTAR": 0.00010258121, "MEAN_MOTION_DOT": 8.33e-06, "MEAN_MOTION_DDOT": 0}, "tle": {"line1": "1 40716U 15032B   25343.62627554  .00000833  00000+0  10258-3 0  9995", "line2": "2 40716  97.6747 212.3736 0005575 338.1865  21.9113 14.85432944561766"}}, "geometry": {"type": "Point", "coordinates": [73.84091325365499, 78.41338101062844]}}, {"type": "Feature", "properties": {"norad_id": 40717, "name": "DMC3-FM3", "group": "dmc", "lat": -16.78976676234238, "lon": -143.31953570131054, "alt_km": 613.7422573775366, "timestamp": "2025-12-09T23:33:23.516098+00:00", "meta": {"OBJECT_NAME": "DMC3-FM3", "OBJECT_ID": "2015-032C", "EPOCH": "2025-12-09T13:55:56.603136", "MEAN_MOTION": 14.854215, "ECCENTRICITY": 0.00049567, "INCLINATION": 97.6801, "RA_OF_ASC_NODE": 213.9602, "ARG_OF_PERICENTER": 339.8139, "MEAN_ANOMALY": 20.2879, "EPHEMERIS_TYPE": 0, "CLASSIFICATION_TYPE": "U", "NORAD_CAT_ID": 40717, "ELEMENT_SET_NO": 999, "REV_AT_EPOCH": 56176, "BSTAR": 7.5164866e-05, "MEAN_MOTION_DOT": 5.96e-06, "MEAN_MOTION_DDOT": 0}, "tle": {"line1": "1 40717U 15032C   25343.58051624  .00000596  00000+0  75165-4 0  9995", "line2": "2 40717  97.6801 213.9602 0004956 339.8139  20.2879 14.85421500561768"}}, "geometry": {"type": "Point", "coordinates": [-143.31953570131054, -16.78976676234238]}}]}